{
  "type": "FeatureCollection",
  "features": [
    {
      "type": "Feature",
      "properties": {
        "norad_id": 33701,
        "name": "FENGYUN 1C DEB",
        "group": "fengyun-1c-debris",
        "lat": -20.22663513728316,
        "lon": -62.179291080981535,
        "alt_km": 954.5539002222968,
        "timestamp": "2025-12-05T20:43:02.341965+00:00",
        "meta_object_name": "FENGYUN 1C DEB",
        "meta_object_id": "1999-025DGN",
        "meta_epoch": "2025-11-19T19:29:54.481632",
        "meta_mean_motion": 14.02181122,
        "meta_eccentricity": 0.01331995,
        "meta_inclination": 98.6598,
        "meta_ra_of_asc_node": 279.346,
        "meta_arg_of_pericenter": 252.9525,
        "meta_mean_anomaly": 105.7013,
        "meta_ephemeris_type": 0,
        "meta_classification_type": "U",
        "meta_norad_cat_id": 33701,
        "meta_element_set_no": 999,
        "meta_rev_at_epoch": 90184,
        "meta_bstar": 0.0018411078,
        "meta_mean_motion_dot": 3.003e-05,
        "meta_mean_motion_ddot": 0,
        "tle_line1": "1 33701U 99025DGN 25323.81243613  .00003003  00000+0  18411-2 0  9994",
        "tle_line2": "2 33701  98.6598 279.3460 0133199 252.9525 105.7013 14.02181122901849"
      },
      "geometry": {
        "type": "Point",
        "coordinates": [
          -62.179291080981535,
          -20.22663513728316
        ]
      }
    },
    {
      "type": "Feature",
      "properties": {
        "norad_id": 33710,
        "name": "FENGYUN 1C DEB",
        "group": "fengyun-1c-debris",
        "lat": 32.8001276008993,
        "lon": -95.44900242026308,
        "alt_km": 813.5692081246352,
        "timestamp": "2025-12-05T20:43:02.341975+00:00",
        "meta_object_name": "FENGYUN 1C DEB",
        "meta_object_id": "1999-025DGX",
        "meta_epoch": "2025-12-02T05:15:53.096256",
        "meta_mean_motion": 14.11571356,
        "meta_eccentricity": 0.0056132,
        "meta_inclination": 98.9804,
        "meta_ra_of_asc_node": 75.0562,
        "meta_arg_of_pericenter": 176.3436,
        "meta_mean_anomaly": 183.8157,
        "meta_ephemeris_type": 0,
        "meta_classification_type": "U",
        "meta_norad_cat_id": 33710,
        "meta_element_set_no": 999,
        "meta_rev_at_epoch": 67508,
        "meta_bstar": 0.0015671,
        "meta_mean_motion_dot": 2.844e-05,
        "meta_mean_motion_ddot": 0,
        "tle_line1": "1 33710U 99025DGX 25336.21936454  .00002844  00000+0  15671-2 0  9991",
        "tle_line2": "2 33710  98.9804  75.0562 0056132 176.3436 183.8157 14.11571356675089"
      },
      "geometry": {
        "type": "Point",
        "coordinates": [
          -95.44900242026308,
          32.8001276008993
        ]
      }
    },
    {
      "type": "Feature",
      "properties": {
        "norad_id": 33711,
        "name": "FENGYUN 1C DEB",
        "group": "fengyun-1c-debris",
        "lat": -19.533082475940734,
        "lon": -149.98947073077983,
        "alt_km": 943.199091156499,
        "timestamp": "2025-12-05T20:43:02.341985+00:00",
        "meta_object_name": "FENGYUN 1C DEB",
        "meta_object_id": "1999-025DGY",
        "meta_epoch": "2025-12-04T15:20:39.026112",
        "meta_mean_motion": 14.00898596,
        "meta_eccentricity": 0.0097324,
        "meta_inclination": 99.1844,
        "meta_ra_of_asc_node": 32.0707,
        "meta_arg_of_pericenter": 70.48,
        "meta_mean_anomaly": 79.4194,
        "meta_ephemeris_type": 0,
        "meta_classification_type": "U",
        "meta_norad_cat_id": 33711,
        "meta_element_set_no": 999,
        "meta_rev_at_epoch": 91818,
        "meta_bstar": 0.00095315,
        "meta_mean_motion_dot": 1.44e-05,
        "meta_mean_motion_ddot": 0,
        "tle_line1": "1 33711U 99025DGY 25338.63934058  .00001440  00000+0  95315-3 0  9993",
        "tle_line2": "2 33711  99.1844  32.0707 0097324  70.4800  79.4194 14.00898596918186"
      },
      "geometry": {
        "type": "Point",
        "coordinates": [
          -149.98947073077983,
          -19.533082475940734
        ]
      }
    },
    {
      "type": "Feature",
      "properties": {
        "norad_id": 33716,
        "name": "FENGYUN 1C DEB",
        "group": "fengyun-1c-debris",
        "lat": 72.4736122176825,
        "lon": -124.3649977168107,
        "alt_km": 738.614850227872,
        "timestamp": "2025-12-05T20:43:02.341995+00:00",
        "meta_object_name": "FENGYUN 1C DEB",
        "meta_object_id": "1999-025DHD",
        "meta_epoch": "2025-12-03T01:19:44.904576",
        "meta_mean_motion": 14.32651321,
        "meta_eccentricity": 0.00941178,
        "meta_inclination": 98.8728,
        "meta_ra_of_asc_node": 262.4074,
        "meta_arg_of_pericenter": 26.1691,
        "meta_mean_anomaly": 334.4204,
        "meta_ephemeris_type": 0,
        "meta_classification_type": "U",
        "meta_norad_cat_id": 33716,
        "meta_element_set_no": 999,
        "meta_rev_at_epoch": 65019,
        "meta_bstar": 0.00025304752,
        "meta_mean_motion_dot": 6.76e-06,
        "meta_mean_motion_ddot": 0,
        "tle_line1": "1 33716U 99025DHD 25337.05538084  .00000676  00000+0  25305-3 0  9994",
        "tle_line2": "2 33716  98.8728 262.4074 0094117  26.1691 334.4204 14.32651321650195"
      },
      "geometry": {
        "type": "Point",
        "coordinates": [
          -124.3649977168107,
          72.4736122176825
        ]
      }
    },
    {
      "type": "Feature",
      "properties": {
        "norad_id": 33718,
        "name": "FENGYUN 1C DEB",
        "group": "fengyun-1c-debris",
        "lat": 55.12104019933713,
        "lon": 51.84483342034965,
        "alt_km": 844.5911494391694,
        "timestamp": "2025-12-05T20:43:02.342004+00:00",
        "meta_object_name": "FENGYUN 1C DEB",
        "meta_object_id": "1999-025DHF",
        "meta_epoch": "2025-12-04T12:03:03.157632",
        "meta_mean_motion": 14.08010007,
        "meta_eccentricity": 0.0097616,
        "meta_inclination": 99.6605,
        "meta_ra_of_asc_node": 64.533,
        "meta_arg_of_pericenter": 342.8388,
        "meta_mean_anomaly": 16.9486,
        "meta_ephemeris_type": 0,
        "meta_classification_type": "U",
        "meta_norad_cat_id": 33718,
        "meta_element_set_no": 999,
        "meta_rev_at_epoch": 69070,
        "meta_bstar": 0.0030405,
        "meta_mean_motion_dot": 5.355e-05,
        "meta_mean_motion_ddot": 0,
        "tle_line1": "1 33718U 99025DHF 25338.50211988  .00005355  00000+0  30405-2 0  9993",
        "tle_line2": "2 33718  99.6605  64.5330 0097616 342.8388  16.9486 14.08010007690702"
      },
      "geometry": {
        "type": "Point",
        "coordinates": [
          51.84483342034965,
          55.12104019933713
        ]
      }
    },
    {
      "type": "Feature",
      "properties": {
        "norad_id": 33719,
        "name": "FENGYUN 1C DEB",
        "group": "fengyun-1c-debris",
        "lat": -80.76308713134266,
        "lon": 148.0931806581194,
        "alt_km": 842.7894140484686,
        "timestamp": "2025-12-05T20:43:02.342014+00:00",
        "meta_object_name": "FENGYUN 1C DEB",
        "meta_object_id": "1999-025DHG",
        "meta_epoch": "2025-12-03T22:45:11.954592",
        "meta_mean_motion": 14.23416245,
        "meta_eccentricity": 0.00308864,
        "meta_inclination": 98.7747,
        "meta_ra_of_asc_node": 37.9441,
        "meta_arg_of_pericenter": 104.9071,
        "meta_mean_anomaly": 73.7168,
        "meta_ephemeris_type": 0,
        "meta_classification_type": "U",
        "meta_norad_cat_id": 33719,
        "meta_element_set_no": 999,
        "meta_rev_at_epoch": 91888,
        "meta_bstar": 0.0022106119,
        "meta_mean_motion_dot": 5.002e-05,
        "meta_mean_motion_ddot": 0,
        "tle_line1": "1 33719U 99025DHG 25337.94805503  .00005002  00000+0  22106-2 0  9991",
        "tle_line2": "2 33719  98.7747  37.9441 0030886 104.9071  73.7168 14.23416245918880"
      },
      "geometry": {
        "type": "Point",
        "coordinates": [
          148.0931806581194,
          -80.76308713134266
        ]
      }
    },
    {
      "type": "Feature",
      "properties": {
        "norad_id": 33722,
        "name": "FENGYUN 1C DEB",
        "group": "fengyun-1c-debris",
        "lat": -36.28798484954798,
        "lon": 168.0535426041933,
        "alt_km": 760.7841547272046,
        "timestamp": "2025-12-05T20:43:02.342025+00:00",
        "meta_object_name": "FENGYUN 1C DEB",
        "meta_object_id": "1999-025DHK",
        "meta_epoch": "2025-12-05T07:51:32.196672",
        "meta_mean_motion": 14.21318721,
        "meta_eccentricity": 0.01579882,
        "meta_inclination": 98.5736,
        "meta_ra_of_asc_node": 353.8928,
        "meta_arg_of_pericenter": 273.2558,
        "meta_mean_anomaly": 85.0556,
        "meta_ephemeris_type": 0,
        "meta_classification_type": "U",
        "meta_norad_cat_id": 33722,
        "meta_element_set_no": 999,
        "meta_rev_at_epoch": 92042,
        "meta_bstar": 0.0013828169,
        "meta_mean_motion_dot": 3.379e-05,
        "meta_mean_motion_ddot": 0,
        "tle_line1": "1 33722U 99025DHK 25339.32745598  .00003379  00000+0  13828-2 0  9992",
        "tle_line2": "2 33722  98.5736 353.8928 0157988 273.2558  85.0556 14.21318721920421"
      },
      "geometry": {
        "type": "Point",
        "coordinates": [
          168.0535426041933,
          -36.28798484954798
        ]
      }
    }
  ]
}